[{"OBJECT_NAME":"SEEDS II (CO-66)","OBJECT_ID":"2008-021J","EPOCH":"2026-03-09T22:06:22.421376","MEAN_MOTION":15.29097236,"ECCENTRICITY":0.00014475,"INCLINATION":97.7519,"RA_OF_ASC_NODE":62.3611,"ARG_OF_PERICENTER":359.2618,"MEAN_ANOMALY":0.8619,"EPHEMERIS_TYPE":0,"CLASSIFICATION_TYPE":"U","NORAD_CAT_ID":32791,"ELEMENT_SET_NO":999,"REV_AT_EPOCH":97210,"BSTAR":0.00084213052,"MEAN_MOTION_DOT":0.00023758,"MEAN_MOTION_DDOT":0},{"OBJECT_NAME":"STARLINK-31238","OBJECT_ID":"2024-019A","EPOCH":"2026-03-09T11:38:18.985344","MEAN_MOTION":15.27575974,"ECCENTRICITY":0.00014762,"INCLINATION":43.0033,"RA_OF_ASC_NODE":249.8573,"ARG_OF_PERICENTER":277.3704,"MEAN_ANOMALY":82.698,"EPHEMERIS_TYPE":0,"CLASSIFICATION_TYPE":"U","NORAD_CAT_ID":58853,"ELEMENT_SET_NO":999,"REV_AT_EPOCH":11905,"BSTAR":4.406254e-6,"MEAN_MOTION_DOT":-1.41e-6,"MEAN_MOTION_DDOT":0}]
